IRIDIUM 136             
1 42962U 17061H   24184.47507676  .00000253  00000+0  83238-4 0  9996
2 42962  86.3978 323.9287 0002032 101.1989 258.9435 14.34215441352393
